OBJECT_NAME,OBJECT_ID,EPOCH,MEAN_MOTION,ECCENTRICITY,INCLINATION,RA_OF_ASC_NODE,ARG_OF_PERICENTER,MEAN_ANOMALY,EPHEMERIS_TYPE,CLASSIFICATION_TYPE,NORAD_CAT_ID,ELEMENT_SET_NO,REV_AT_EPOCH,BSTAR,MEAN_MOTION_DOT,MEAN_MOTION_DDOT
STARLINK-36700,2026-022Q,2026-07-22T13:01:09.192864,15.33453487,.00009499,97.2831,236.0397,127.4313,232.7016,0,U,67662,999,2624,.54222275E-3,.17475E-3,0
STARLINK-36675,2026-022R,2026-07-22T13:12:53.917920,15.33451939,.00012273,97.2807,236.0246,153.4016,206.7290,0,U,67663,999,2624,.38439978E-3,.12358E-3,0
STARLINK-36404,2026-022S,2026-07-22T08:11:27.939840,15.33447872,.00013607,97.2861,235.7010,88.1602,271.9797,0,U,67664,999,2620,.98657018E-3,.31913E-3,0
STARLINK-36399,2026-022T,2026-07-22T01:51:38.398464,15.33465747,.00017853,97.2827,235.4472,116.4690,243.6736,0,U,67665,999,2616,.70330001E-3,.22714E-3,0
STARLINK-36365,2026-022U,2026-07-22T07:59:40.466400,15.33456307,.00013885,97.2845,235.7127,122.3031,237.8346,0,U,67666,999,2620,.43517652E-3,.14005E-3,0
STARLINK-36622,2026-022V,2026-07-22T12:29:50.333280,15.33447404,.00006557,97.2849,235.9143,155.8671,204.2603,0,U,67667,999,2623,.94775453E-3,.30648E-3,0
STARLINK-36625,2026-022W,2026-07-22T01:20:18.936672,15.33466848,.0001416,97.2870,235.4784,168.4089,191.7187,0,U,67668,999,2616,.72655377E-3,.2347E-3,0
STARLINK-36639,2026-022X,2026-07-22T08:58:24.183264,15.33474054,.00010894,97.2841,235.8101,114.0508,246.0849,0,U,67669,999,2621,.64865099E-3,.20943E-3,0
STARLINK-36596,2026-022Y,2026-07-22T13:28:34.878720,15.33457297,.00002008,97.2829,236.0122,120.8274,239.2989,0,U,67670,999,2624,.79791528E-3,.25782E-3,0
STARLINK-36297,2026-022Z,2026-07-22T13:05:04.990560,15.33448569,.00009464,97.2840,236.0360,132.8765,227.2557,0,U,67671,999,2624,.47793122E-3,.15387E-3,0
STARLINK-36616,2026-022AA,2026-07-22T13:16:48.998496,15.33456693,.00004955,97.2831,236.0251,130.9828,229.1457,0,U,67672,999,2624,.52272156E-3,.16844E-3,0
STARLINK-36748,2026-025A,2026-07-22T13:21:50.639040,15.33455907,.00001672,97.2851,314.3716,124.9611,235.1648,0,U,67693,999,2668,.42654545E-3,.13725E-3,0
STARLINK-36753,2026-025B,2026-07-22T06:46:24.031776,15.33464420,.0001825,97.2831,313.9829,105.5901,254.5544,0,U,67694,999,2664,.72598636E-3,.2345E-3,0
STARLINK-36750,2026-025C,2026-07-22T14:04:54.625440,15.33466018,.00019081,97.2842,314.3328,101.2881,258.8576,0,U,67695,999,2668,.46342793E-3,.14926E-3,0
STARLINK-36401,2026-025D,2026-07-22T07:21:37.738656,15.33445142,.00004,97.2840,314.1030,83.9486,276.1803,0,U,67696,999,2664,.25115154E-3,.8042E-4,0
STARLINK-36704,2026-025E,2026-07-22T07:33:22.652064,15.33474239,.00007565,97.2837,314.0913,128.7881,231.3429,0,U,67697,999,2664,.59701527E-3,.19266E-3,0
STARLINK-36697,2026-025F,2026-07-22T13:41:24.871200,15.33474178,.00012819,97.2838,314.3582,87.7562,272.3827,0,U,67698,999,2668,.81693283E-3,.26415E-3,0
STARLINK-36716,2026-025G,2026-07-22T06:38:33.984672,15.33457242,.0000771,97.2835,313.9929,88.1846,271.9485,0,U,67699,999,2664,.11334413E-2,.36709E-3,0
STARLINK-36712,2026-025H,2026-07-22T14:00:59.754816,15.33476370,.00024635,97.2834,314.3372,103.1962,256.9556,0,U,67700,999,2668,.69543861E-3,.22467E-3,0
STARLINK-36713,2026-025J,2026-07-22T06:34:39.258336,15.33467065,.00013015,97.2834,313.9944,104.5173,255.6215,0,U,67701,999,2664,.67592718E-3,.21825E-3,0
STARLINK-36695,2026-025K,2026-07-22T13:25:45.140736,15.33471114,.0001434,97.2864,314.3723,117.4147,242.7242,0,U,67702,999,2668,.77012578E-3,.2489E-3,0
STARLINK-36630,2026-025L,2026-07-22T07:29:27.589632,15.33479448,.00007159,97.2832,314.0936,86.9774,273.1551,0,U,67703,999,2664,.63828542E-3,.2061E-3,0
STARLINK-36338,2026-025M,2026-07-22T06:42:29.032416,15.33468706,.00009816,97.2841,313.9893,83.7719,276.3636,0,U,67704,999,2663,.10712315E-2,.34693E-3,0
STARLINK-36316,2026-025N,2026-07-22T06:30:44.205408,15.33469450,.00010392,97.2837,313.9958,130.0225,230.1109,0,U,67705,999,2663,.71888954E-3,.23223E-3,0
STARLINK-36707,2026-025P,2026-07-22T06:18:59.551200,15.33474155,.00009485,97.2833,314.0108,95.1567,264.9784,0,U,67706,999,2663,.1223322E-2,.39662E-3,0
STARLINK-36645,2026-025Q,2026-07-22T06:58:08.865696,15.33453718,.00008438,97.2846,314.1260,89.3299,270.8041,0,U,67707,999,2664,.76347376E-3,.2466E-3,0
STARLINK-36287,2026-025R,2026-07-22T13:29:40.113312,15.33460871,.00010675,97.2863,314.3711,278.5177,81.5945,0,U,67708,999,2669,.44474293E-3,.14317E-3,0
STARLINK-36698,2026-025S,2026-07-22T13:17:56.362848,15.33456451,.00009208,97.2849,314.3822,101.6133,258.5213,0,U,67709,999,2668,.61386192E-3,.19802E-3,0
STARLINK-36344,2026-025T,2026-07-22T13:53:09.890016,15.33465438,.00029394,97.2847,314.3456,102.8120,257.3451,0,U,67710,999,2669,.57172156E-3,.18441E-3,0
STARLINK-36687,2026-025U,2026-07-22T06:54:13.245120,15.33482864,.0001141,97.2844,314.1345,151.3538,208.7768,0,U,67711,999,2665,.69205677E-3,.2236E-3,0
STARLINK-36705,2026-025V,2026-07-22T14:16:40.052928,15.33453915,.00024812,97.2846,314.3265,347.2971,12.8209,0,U,67712,999,2668,.9256549E-3,.29937E-3,0
STARLINK-36708,2026-025W,2026-07-22T06:52:06.309696,15.33433848,.00012282,97.2841,313.2177,87.3253,272.8131,0,U,67713,999,2658,.3032736E-4,.904E-5,0
STARLINK-36702,2026-025X,2026-07-22T14:12:44.438400,15.33470894,.00018187,97.2846,314.3281,109.3035,250.8405,0,U,67714,999,2668,.54839802E-3,.17686E-3,0
STARLINK-36718,2026-025Y,2026-07-22T07:41:12.560064,15.33475120,.00009403,97.2839,314.0892,112.0752,248.0591,0,U,67715,999,2664,.56902374E-3,.18357E-3,0
STARLINK-36715,2026-025Z,2026-07-22T06:50:19.015584,15.33458434,.00012176,97.2824,313.9835,69.6387,290.4987,0,U,67716,999,2663,.55116764E-3,.17768E-3,0
STARLINK-36385,2026-025AA,2026-07-22T13:33:35.695008,15.33432289,.00007611,97.2838,314.3687,101.0952,259.0376,0,U,67717,999,2668,-.21593601E-3,-.7037E-4,0
STARLINK-36772,2026-026A,2026-07-22T03:00:04.560192,15.33460832,.00010799,97.2843,255.7502,94.6727,265.4639,0,U,67721,999,2472,.49891265E-3,.16074E-3,0
STARLINK-36796,2026-026B,2026-07-22T02:56:09.474432,15.33463223,.00005117,97.2856,255.7556,99.5733,260.5567,0,U,67722,999,2472,.44874521E-3,.14448E-3,0
STARLINK-36369,2026-026C,2026-07-22T13:50:00.748320,15.33452863,.00007396,97.2830,256.2064,286.2370,73.8792,0,U,67723,999,2479,.32057494E-3,.10291E-3,0
STARLINK-36752,2026-026D,2026-07-22T02:48:19.703808,15.33458018,.00012279,97.2849,255.7625,166.9313,193.1962,0,U,67724,999,2472,.6489243E-3,.20941E-3,0
STARLINK-36754,2026-026E,2026-07-22T13:42:11.763072,15.33513443,.00016222,97.2872,256.2167,163.5474,196.5822,0,U,67725,999,2479,.93364363E-3,.30253E-3,0
STARLINK-36755,2026-026F,2026-07-22T13:38:15.722592,15.33457517,.0002337,97.2846,256.2183,269.8867,90.2108,0,U,67726,999,2479,.61934712E-3,.19982E-3,0
STARLINK-36741,2026-026G,2026-07-22T02:36:34.926912,15.33480481,.00008714,97.2837,255.7715,124.5650,235.5675,0,U,67727,999,2472,.97695662E-3,.31632E-3,0
STARLINK-36757,2026-026H,2026-07-22T02:32:40.089984,15.33471590,.000065,97.2843,255.7769,108.9598,251.1715,0,U,67728,999,2472,.68719773E-3,.22194E-3,0
STARLINK-36751,2026-026J,2026-07-22T10:14:40.190784,15.33464872,.00024364,97.2844,256.1061,105.4215,254.7297,0,U,67729,999,2477,.6291948E-3,.20306E-3,0
STARLINK-36747,2026-026K,2026-07-22T02:28:45.175296,15.33465627,.00002091,97.2853,255.7812,16.4348,343.6901,0,U,67730,999,2472,.62712956E-3,.20238E-3,0
STARLINK-36315,2026-026L,2026-07-22T02:20:55.674240,15.33492129,.00022043,97.2847,255.7890,173.0608,187.0666,0,U,67731,999,2472,.70847943E-3,.22902E-3,0
STARLINK-36260,2026-026M,2026-07-22T02:17:00.332736,15.33465204,.00018984,97.2843,255.7934,156.1851,203.9480,0,U,67732,999,2472,.5846433E-3,.18859E-3,0
STARLINK-36746,2026-026N,2026-07-22T10:02:55.350816,15.33464858,.00011354,97.2838,256.1119,103.3789,256.7581,0,U,67733,999,2477,.43854824E-3,.14118E-3,0
STARLINK-36749,2026-026P,2026-07-22T03:43:08.317632,15.33469236,.00011889,97.2848,255.8642,135.6315,224.5023,0,U,67734,999,2473,.55261014E-3,.17821E-3,0
STARLINK-36691,2026-026Q,2026-07-22T09:51:10.630944,15.33461321,.00016229,97.2864,256.1303,120.5484,239.5919,0,U,67735,999,2477,.63242186E-3,.20408E-3,0
STARLINK-36317,2026-026R,2026-07-22T09:55:06.839040,15.33432053,.00003341,97.2840,256.1245,105.8328,254.2951,0,U,67736,999,2477,.22534689E-3,.7204E-4,0
STARLINK-36330,2026-026S,2026-07-22T03:31:23.507040,15.33469451,.00012433,97.2839,255.8762,166.3575,193.7701,0,U,67737,999,2473,.55996902E-3,.1806E-3,0
STARLINK-36327,2026-026T,2026-07-22T03:27:28.696896,15.33464509,.00005088,97.2841,255.8791,137.8418,222.2864,0,U,67738,999,2473,.50041046E-3,.16124E-3,0
STARLINK-36329,2026-026U,2026-07-22T03:03:59.036832,15.33462345,.00012716,97.2847,255.9027,209.4814,150.6357,0,U,67739,999,2473,.49657839E-3,.15999E-3,0
STARLINK-36737,2026-026V,2026-07-22T03:23:33.841824,15.33467365,.00006008,97.2871,255.8883,106.9763,253.1546,0,U,67740,999,2473,.53790377E-3,.17342E-3,0
STARLINK-36740,2026-026W,2026-07-22T14:05:42.279360,15.33463524,.00003695,97.2846,256.3478,187.3965,172.7272,0,U,67741,999,2480,.52573906E-3,.16946E-3,0
STARLINK-36693,2026-026X,2026-07-22T14:17:25.361088,15.33448742,.00011199,97.2833,256.3366,111.2078,248.9284,0,U,67742,999,2480,.43888888E-3,.14122E-3,0
STARLINK-36717,2026-026Y,2026-07-22T14:09:35.688960,15.33445534,.00010045,97.2832,256.3461,94.6925,265.4432,0,U,67743,999,2480,.32589023E-3,.10461E-3,0
STARLINK-36692,2026-026Z,2026-07-22T09:31:36.248448,15.33452423,.00004376,97.2873,256.1494,106.3734,253.7557,0,U,67744,999,2477,.68446625E-3,.22092E-3,0
STARLINK-36800,2026-032A,2026-07-22T10:10:48.313056,15.33449050,.00016532,97.2869,30.7563,82.5665,277.5766,0,U,67797,999,2561,.54610358E-3,.17599E-3,0
STARLINK-36798,2026-032B,2026-07-22T06:35:26.136384,15.33446771,.00017196,97.2879,30.5010,80.9282,279.2155,0,U,67798,999,2558,.70922875E-3,.22893E-3,0
STARLINK-36804,2026-032C,2026-07-22T02:17:01.804128,15.33439242,.00013867,97.2861,30.2883,99.6836,260.4563,0,U,67799,999,2555,.62164357E-3,.20044E-3,0
